{
    "links": {
        "self": "http://www.neowsapp.com/rest/v1/neo/3568423?api_key=iIulBulltgU6a56xZRHN4H3l9WmuAYTsLGpBGhQ2"
    },
    "id": "3568423",
    "neo_reference_id": "3568423",
    "name": "(2011 ND)",
    "designation": "2011 ND",
    "nasa_jpl_url": "http://ssd.jpl.nasa.gov/sbdb.cgi?sstr=3568423",
    "absolute_magnitude_h": 22.2,
    "estimated_diameter": {
        "kilometers": {
            "estimated_diameter_min": 0.096506147,
            "estimated_diameter_max": 0.2157943048
        },
        "meters": {
            "estimated_diameter_min": 96.5061469579,
            "estimated_diameter_max": 215.7943048444
        },
        "miles": {
            "estimated_diameter_min": 0.059966121,
            "estimated_diameter_max": 0.134088323
        },
        "feet": {
            "estimated_diameter_min": 316.6212271853,
            "estimated_diameter_max": 707.9865871058
        }
    },
    "is_potentially_hazardous_asteroid": false,
    "close_approach_data": [
        {
            "close_approach_date": "2011-07-22",
            "close_approach_date_full": "2011-Jul-22 07:46",
            "epoch_date_close_approach": 1311320760000,
            "relative_velocity": {
                "kilometers_per_second": "6.2623638564",
                "kilometers_per_hour": "22544.5098829562",
                "miles_per_hour": "14008.2817103291"
            },
            "miss_distance": {
                "astronomical": "0.2107131054",
                "lunar": "81.9673980006",
                "kilometers": "31522231.748925498",
                "miles": "19587006.5472199524"
            },
            "orbiting_body": "Earth"
        }
    ],
    "orbital_data": {
        "orbit_id": "13",
        "orbit_determination_date": "2017-04-06 08:53:11",
        "first_observation_date": "2011-07-01",
        "last_observation_date": "2011-07-29",
        "data_arc_in_days": 28,
        "observations_used": 68,
        "orbit_uncertainty": "8",
        "minimum_orbit_intersection": ".165508",
        "jupiter_tisserand_invariant": "3.450",
        "epoch_osculation": "2455747.5",
        "eccentricity": ".4806519014840333",
        "semi_major_axis": "2.264532683097292",
        "inclination": "5.055950305961525",
        "ascending_node_longitude": "139.9475136999168",
        "orbital_period": "1244.704662795626",
        "perihelion_distance": "1.176080742993839",
        "perihelion_argument": "151.5767017629868",
        "aphelion_distance": "3.352984623200746",
        "perihelion_time": "2455764.168360057657",
        "mean_anomaly": "355.1790896265472",
        "mean_motion": ".2892252361226272",
        "equinox": "J2000",
        "orbit_class": {
            "orbit_class_type": "AMO",
            "orbit_class_description": "Near-Earth asteroid orbits similar to that of 1221 Amor",
            "orbit_class_range": "1.017 AU < q (perihelion) < 1.3 AU"
        }
    },
    "is_sentry_object": false
}